[{"OBJECT_NAME":"STARLINK-3199","OBJECT_ID":"2021-115AN","EPOCH":"2026-03-09T12:04:27.356160","MEAN_MOTION":15.08826102,"ECCENTRICITY":0.00012596,"INCLINATION":53.2171,"RA_OF_ASC_NODE":139.9583,"ARG_OF_PERICENTER":86.1555,"MEAN_ANOMALY":273.9581,"EPHEMERIS_TYPE":0,"CLASSIFICATION_TYPE":"U","NORAD_CAT_ID":49760,"ELEMENT_SET_NO":999,"REV_AT_EPOCH":23565,"BSTAR":-9.5197863e-5,"MEAN_MOTION_DOT":-1.802e-5,"MEAN_MOTION_DDOT":0},{"OBJECT_NAME":"OBJECT J","OBJECT_ID":"2017-042J","EPOCH":"2026-03-09T23:17:19.167936","MEAN_MOTION":15.08203331,"ECCENTRICITY":0.00078186,"INCLINATION":97.4246,"RA_OF_ASC_NODE":235.0467,"ARG_OF_PERICENTER":81.5059,"MEAN_ANOMALY":278.7055,"EPHEMERIS_TYPE":0,"CLASSIFICATION_TYPE":"U","NORAD_CAT_ID":42833,"ELEMENT_SET_NO":999,"REV_AT_EPOCH":47205,"BSTAR":0.00039182004,"MEAN_MOTION_DOT":6.006e-5,"MEAN_MOTION_DDOT":0}]
